[Satellite]
VERSION=1.1
NAME=QSAT-EOS
NICKNAME=QSAT-EOS
TLE1=1 40301U 14070D   17186.26087385  .00001578  00000-0  68895-4 0  9993
TLE2=2 40301  97.3889 265.9265 0028716  36.9678  39.2315 15.23247988147589
